ORBCOMM FM115           
1 41186U 15081H   24124.59077022  .00000784  00000+0  19491-3 0  9995
2 41186  46.9977 184.8715 0001374 302.6623  57.4131 14.60639587447853
ORBCOMM FM108           
1 41187U 15081J   24124.75527686  .00001269  00000+0  31955-3 0  9998
2 41187  47.0046 238.1811 0003399 236.5037 123.5523 14.56553892447158
ORBCOMM FM117           
1 41188U 15081K   24124.58381553  .00001248  00000+0  31502-3 0  9996
2 41188  47.0005 237.8833 0003924 243.7984 116.2497 14.56557949447144
ORBCOMM FM116           
1 41189U 15081L   24124.84753265  .00001105  00000+0  28321-3 0  9996
2 41189  47.0024 326.4613 0002106 324.9467  35.1279 14.56554584446010
